{"type": "Feature", "properties": {"gid": 54, "entidad": 0, "fna": "Ciudad Autónoma de Buenos Aires", "gna": "Ciudad Autónoma", "nam": "Ciudad Autónoma de Buenos Aires", "in1": "02", "fdc": "Geografía", "sag": "IGN", "procedencia": {"fuente": "Instituto Geografico Nacional (IGN) - WFS ign:provincia", "url": "https://wms.ign.gob.ar/geoserver/ows?service=WFS&version=2.0.0&request=GetFeature&typeNames=ign%3Aprovincia&outputFormat=application%2Fjson&srsName=EPSG%3A4326&CQL_FILTER=in1%3D%2702%27", "descargado": "2026-09-28T20:05:02+00:00", "sello_del_servicio": "2026-09-28T20:05:03.414Z", "crs": "EPSG:4326 (lon, lat)", "licencia": "IGN WFS ows:AccessConstraints: libre acceso, copia, reproceso, reutilizacion y redistribucion segun el Art. 2 de la Ley 27.275", "vertices": 1024, "sha256_coordenadas": "90ac467c23720ee70413a932a78f0fb0f21e9bb6c068308a3aedd53e2b37918e", "reproducir": "python scripts/geo_poligono_caba.py"}}, "geometry": {"type": "MultiPolygon", "coordinates": [[[[-58.45535089, -34.52776288], [-58.45403557, -34.52929522], [-58.45277519, -34.530761], [-58.45254863, -34.53102447], [-58.45230927, -34.53130285], [-58.45200113, -34.53175796], [-58.45178415, -34.53153631], [-58.45169536, -34.53144561], [-58.45155069, -34.53149384], [-58.45143838, -34.53153127], [-58.45085304, -34.53230222], [-58.45070131, -34.53263601], [-58.45064783, -34.53275366], [-58.45035335, -34.53340153], [-58.4501379, -34.53406873], [-58.45006728, -34.53428743], [-58.44991077, -34.5347721], [-58.44994528, -34.535113], [-58.44957766, -34.53526437], [-58.44912316, -34.53545152], [-58.44897446, -34.53551275], [-58.44890404, -34.53554498], [-58.44886025, -34.53560555], [-58.44880314, -34.53569121], [-58.44878998, -34.53574473], [-58.44886748, -34.53587389], [-58.44900301, -34.53596247], [-58.44914578, -34.53605526], [-58.44928141, -34.53613379], [-58.44933852, -34.53616234], [-58.44938135, -34.53629083], [-58.44933852, -34.53638363], [-58.44929569, -34.53646929], [-58.44923858, -34.53653354], [-58.44915292, -34.53666917], [-58.44910295, -34.53674769], [-58.44903157, -34.53685476], [-58.44896732, -34.53694042], [-58.44887452, -34.53701181], [-58.44881028, -34.53707605], [-58.44875317, -34.53714744], [-58.44872462, -34.53720455], [-58.44871034, -34.53726165], [-58.44868179, -34.53734017], [-58.44863896, -34.53736873], [-58.44853902, -34.53736873], [-58.44841053, -34.53731162], [-58.44828918, -34.53726165], [-58.44815355, -34.53720455], [-58.44810731, -34.53718143], [-58.44798223, -34.53711888], [-58.44794653, -34.53706891], [-58.44798223, -34.53701181], [-58.4480893, -34.53701181], [-58.44821779, -34.53700467], [-58.44823207, -34.53689046], [-58.44819638, -34.53683335], [-58.44804647, -34.53671914], [-58.44793939, -34.53663347], [-58.44778949, -34.53651926], [-58.44757534, -34.5364336], [-58.44741829, -34.5363408], [-58.44731836, -34.53629797], [-58.44721128, -34.53626228], [-58.44696144, -34.53618376], [-58.4467687, -34.53611237], [-58.44659738, -34.53604813], [-58.44658943, -34.53604586], [-58.44644747, -34.5360053], [-58.4463404, -34.53597674], [-58.44614052, -34.53594105], [-58.44591923, -34.53593391], [-58.44570508, -34.53592677], [-58.4455409, -34.53592677], [-58.4454415, -34.53594097], [-58.44534102, -34.53595533], [-58.44519826, -34.5359696], [-58.44499838, -34.53601244], [-58.44476281, -34.53604099], [-58.44457722, -34.53607668], [-58.44444159, -34.5360981], [-58.44416319, -34.53614093], [-58.44404184, -34.53616234], [-58.4438491, -34.53622659], [-58.4435119, -34.53639104], [-58.44339446, -34.53644832], [-58.44294602, -34.53666703], [-58.44258679, -34.53684223], [-58.44154822, -34.5379457], [-58.44153356, -34.53796128], [-58.44144465, -34.53805576], [-58.44113568, -34.53855354], [-58.44101961, -34.53874054], [-58.44093068, -34.53888381], [-58.44090165, -34.53915676], [-58.4408593, -34.53955482], [-58.44085794, -34.53962419], [-58.44085336, -34.53985764], [-58.44084384, -34.53986716], [-58.44076532, -34.53989572], [-58.44057332, -34.53989941], [-58.44039412, -34.53990285], [-58.44035129, -34.53984575], [-58.44033817, -34.53981951], [-58.44032988, -34.53980292], [-58.44023708, -34.5397815], [-58.44015142, -34.5397815], [-58.44005862, -34.53982433], [-58.43988016, -34.53993855], [-58.4397017, -34.53998138], [-58.43960693, -34.53998138], [-58.43950896, -34.53998138], [-58.4394233, -34.53999565], [-58.43934478, -34.54003134], [-58.43914491, -34.54005276], [-58.43896645, -34.53999565], [-58.43868091, -34.53990999], [-58.43835968, -34.53988858], [-58.43806701, -34.5398743], [-58.43781003, -34.53990999], [-58.43772437, -34.53990999], [-58.43766726, -34.53983147], [-58.43758638, -34.53980836], [-58.43756732, -34.53980292], [-58.43754719, -34.53981801], [-58.43751022, -34.53984575], [-58.43738886, -34.53993141], [-58.43729607, -34.53997424], [-58.43707478, -34.54001707], [-58.43683921, -34.54009559], [-58.43658223, -34.54017411], [-58.43647954, -34.5402226], [-58.43632525, -34.54029546], [-58.43603257, -34.54045251], [-58.43551147, -34.54088081], [-58.43541867, -34.54098075], [-58.43529018, -34.54116635], [-58.43517597, -34.54133767], [-58.43509744, -34.54152327], [-58.43500464, -34.54172314], [-58.43492612, -34.54188019], [-58.4348476, -34.5420872], [-58.43481191, -34.54221569], [-58.43476908, -34.54231563], [-58.43469056, -34.54243698], [-58.43457634, -34.54257261], [-58.43435505, -34.54275107], [-58.43414804, -34.54287956], [-58.4339553, -34.54298663], [-58.43376257, -34.54308657], [-58.4334342, -34.54324362], [-58.43297021, -34.54348632], [-58.43264898, -34.54367192], [-58.43234917, -34.54385752], [-58.43218498, -34.54396459], [-58.431928, -34.54417875], [-58.43156394, -34.54450711], [-58.43145687, -34.54460705], [-58.43135693, -34.54477837], [-58.4312213, -34.5449711], [-58.43111423, -34.54517812], [-58.43096432, -34.54551362], [-58.43086438, -34.54584199], [-58.43082869, -34.54597762], [-58.430793, -34.54609183], [-58.43075731, -34.54624174], [-58.43071448, -34.54644161], [-58.43068592, -34.54661293], [-58.4307088, -34.54694523], [-58.43072875, -34.54716973], [-58.43068453, -34.54786718], [-58.42996814, -34.54827252], [-58.42961065, -34.5488835], [-58.42903413, -34.54920486], [-58.42865432, -34.54918516], [-58.42842555, -34.54939682], [-58.42804686, -34.54931983], [-58.42762999, -34.54942854], [-58.42741174, -34.54896882], [-58.42725236, -34.5486331], [-58.42720239, -34.54861882], [-58.42714529, -34.54853316], [-58.42693827, -34.54824762], [-58.42690972, -34.54819052], [-58.4268312, -34.54814055], [-58.42675856, -34.54816985], [-58.42660991, -34.54819052], [-58.42652732, -34.54823588], [-58.42610308, -34.54846891], [-58.42562373, -34.54877908], [-58.42561767, -34.548783], [-58.42555343, -34.54883297], [-58.42554629, -34.54886866], [-58.42556056, -34.54898288], [-58.42560339, -34.54905426], [-58.42559626, -34.54912564], [-58.42543921, -34.54916847], [-58.42534641, -34.54918275], [-58.4251977, -34.54894421], [-58.42475036, -34.54902035], [-58.42443817, -34.54916276], [-58.42420784, -34.54926782], [-58.42443851, -34.5497001], [-58.42493952, -34.55063898], [-58.4256047, -34.55226513], [-58.42312436, -34.55292853], [-58.42309068, -34.55293754], [-58.42294792, -34.55298751], [-58.42291936, -34.55298037], [-58.42286226, -34.55287329], [-58.42232688, -34.55299465], [-58.42236257, -34.55313028], [-58.42088113, -34.55352185], [-58.42074216, -34.55355858], [-58.41977847, -34.55377273], [-58.41918599, -34.55394405], [-58.41906393, -34.55397502], [-58.41870772, -34.55406541], [-58.41818661, -34.5541939], [-58.41760127, -34.55433666], [-58.41725149, -34.55442232], [-58.41700164, -34.55448657], [-58.41665186, -34.55456509], [-58.41624497, -34.55470072], [-58.41601655, -34.55477924], [-58.41573815, -34.55487204], [-58.41541692, -34.5549934], [-58.4152456, -34.55504336], [-58.41497434, -34.55515758], [-58.41466025, -34.55527893], [-58.41445324, -34.55536459], [-58.4142034, -34.55552164], [-58.41397497, -34.55565726], [-58.41380002, -34.55577207], [-58.41374654, -34.55580717], [-58.41363802, -34.55584787], [-58.41351811, -34.55589283], [-58.41344448, -34.55593842], [-58.41336821, -34.55598563], [-58.41315405, -34.55610698], [-58.41296846, -34.55620692], [-58.41274717, -34.55632113], [-58.41252588, -34.55645676], [-58.4121761, -34.55667092], [-58.41197622, -34.55678513], [-58.41171924, -34.55695645], [-58.41141229, -34.55717774], [-58.41122669, -34.55732051], [-58.41114103, -34.55738475], [-58.41098399, -34.55739903], [-58.41086977, -34.55733478], [-58.41076983, -34.55725626], [-58.41072313, -34.55721159], [-58.41060565, -34.55709922], [-58.41032725, -34.55685651], [-58.41016307, -34.55669947], [-58.41001317, -34.55663522], [-58.40987754, -34.55657812], [-58.40975618, -34.55657098], [-58.40967052, -34.55657812], [-58.40957772, -34.55661381], [-58.40943496, -34.55667805], [-58.4094064, -34.5567423], [-58.40937071, -34.55680654], [-58.40937071, -34.55689934], [-58.40938499, -34.55701356], [-58.40941354, -34.5570778], [-58.40957772, -34.55727768], [-58.40989895, -34.55754894], [-58.41007741, -34.55768457], [-58.41017021, -34.55774167], [-58.41017157, -34.5577503], [-58.41019163, -34.5578773], [-58.41017021, -34.55802007], [-58.41012738, -34.55812715], [-58.41006313, -34.55820567], [-58.40929369, -34.55882821], [-58.40456776, -34.56294016], [-58.40365405, -34.56375394], [-58.40314008, -34.56393953], [-58.4022692, -34.5638396], [-58.40156964, -34.56342557], [-58.40124127, -34.56332563], [-58.40077014, -34.56335419], [-58.40009124, -34.56349219], [-58.39919852, -34.56367367], [-58.39902719, -34.56370222], [-58.39877021, -34.56382357], [-58.39854892, -34.56393779], [-58.39842043, -34.56402345], [-58.39829194, -34.56413766], [-58.39810634, -34.56429471], [-58.39798499, -34.56439465], [-58.39781367, -34.56455169], [-58.39772087, -34.56463021], [-58.39756383, -34.56471587], [-58.39737823, -34.56483723], [-58.3972426, -34.56493002], [-58.3971498, -34.56495858], [-58.39704272, -34.56500855], [-58.39695706, -34.56505852], [-58.39688568, -34.56510135], [-58.39683571, -34.56512276], [-58.39677147, -34.56520842], [-58.39674291, -34.56535833], [-58.3967215, -34.56547254], [-58.39675719, -34.56563672], [-58.39680716, -34.56575808], [-58.39687854, -34.56588657], [-58.39698562, -34.56599364], [-58.39704986, -34.56603647], [-58.39721405, -34.566115], [-58.39727103, -34.56613874], [-58.39738537, -34.56618638], [-58.3974627, -34.56623813], [-58.39750077, -34.56628572], [-58.39744366, -34.56645704], [-58.39732945, -34.56653319], [-58.39725688, -34.56655044], [-58.39717121, -34.56658613], [-58.39704272, -34.56664324], [-58.39690709, -34.5667289], [-58.39678574, -34.56677887], [-58.39665725, -34.5668217], [-58.39655018, -34.56686453], [-58.3964431, -34.56699302], [-58.39625036, -34.56720003], [-58.39595769, -34.5676783], [-58.39581492, -34.56784248], [-58.39572926, -34.56804236], [-58.39559363, -34.56826365], [-58.39539376, -34.56854918], [-58.39535807, -34.56868481], [-58.39534379, -34.56879903], [-58.3953081, -34.56889183], [-58.39519388, -34.56905601], [-58.39508681, -34.56916309], [-58.39500115, -34.56922733], [-58.39488693, -34.5692773], [-58.39477272, -34.56922733], [-58.39471561, -34.56917736], [-58.39460854, -34.56926302], [-58.39294647, -34.57202018], [-58.39254837, -34.57224585], [-58.39017102, -34.57359346], [-58.38979121, -34.57380876], [-58.38536551, -34.57631749], [-58.38494938, -34.57628365], [-58.38490033, -34.57632288], [-58.38428643, -34.57628005], [-58.38393665, -34.57624436], [-58.38341555, -34.57617298], [-58.38285876, -34.57562332], [-58.38285876, -34.57552339], [-58.38290872, -34.57539489], [-58.38306577, -34.57530923], [-58.38395605, -34.57481117], [-58.38408656, -34.57473816], [-58.38520728, -34.57411712], [-58.38544333, -34.57398497], [-58.38723459, -34.57298212], [-58.38954305, -34.57161613], [-58.38999714, -34.57134743], [-58.3908015, -34.57090365], [-58.39103221, -34.57077636], [-58.39126777, -34.57066215], [-58.39131774, -34.57053366], [-58.39129633, -34.57037661], [-58.39118211, -34.5701696], [-58.39106076, -34.57001969], [-58.39086802, -34.56984837], [-58.3907895, -34.56978413], [-58.39078267, -34.56977621], [-58.39068738, -34.56966588], [-58.39065387, -34.56962708], [-58.39051824, -34.56941293], [-58.39043972, -34.56934155], [-58.39035406, -34.56929872], [-58.39025412, -34.5692773], [-58.39005425, -34.56925588], [-58.38986865, -34.56924161], [-58.38976547, -34.56923383], [-58.3841865, -34.56881331], [-58.38406514, -34.56874192], [-58.38400277, -34.56870699], [-58.38388668, -34.56864198], [-58.38364398, -34.56855632], [-58.38332275, -34.56844925], [-58.38295156, -34.56841356], [-58.38266602, -34.56839928], [-58.38229482, -34.568385], [-58.38179514, -34.56835645], [-58.38158099, -34.5683279], [-58.3814168, -34.56834217], [-58.381324, -34.56843497], [-58.38113841, -34.56849922], [-58.38110776, -34.56851808], [-58.38104561, -34.56855632], [-58.381002, -34.56860664], [-58.38095281, -34.5686634], [-58.3808957, -34.56877047], [-58.38084573, -34.56891324], [-58.38081718, -34.56906315], [-58.38076721, -34.5691845], [-58.38076007, -34.56927016], [-58.38073866, -34.56939865], [-58.38073152, -34.56952714], [-58.38073866, -34.56968419], [-58.38073152, -34.56986979], [-58.38071917, -34.57019697], [-58.38071724, -34.57024812], [-58.38071724, -34.57036947], [-58.38071724, -34.57049796], [-58.38070296, -34.57062645], [-58.38069583, -34.5707835], [-58.380653, -34.57094768], [-58.38053878, -34.57107617], [-58.38007479, -34.5713046], [-58.37954655, -34.57160441], [-58.37915394, -34.57180429], [-58.37875771, -34.57201299], [-58.37821881, -34.57229684], [-58.37818636, -34.57254196], [-58.37817498, -34.57262797], [-58.37815456, -34.57278225], [-58.38031749, -34.5729607], [-58.38214766, -34.57308858], [-58.38358687, -34.57318913], [-58.38358687, -34.57338901], [-58.38179514, -34.57439552], [-58.38166393, -34.57438403], [-58.37967504, -34.57420992], [-58.37926901, -34.57418227], [-58.37768343, -34.57407429], [-58.3755205, -34.57391725], [-58.37245813, -34.5756376], [-58.37077347, -34.5766227], [-58.3707592, -34.57707955], [-58.37243672, -34.57722232], [-58.37270084, -34.57725087], [-58.37604874, -34.57748644], [-58.37609871, -34.57752213], [-58.37606302, -34.57769345], [-58.37583459, -34.5778505], [-58.37434267, -34.57871424], [-58.37404449, -34.57871424], [-58.37387153, -34.57871424], [-58.37031349, -34.57842552], [-58.36788957, -34.57822883], [-58.36716021, -34.57862592], [-58.36584953, -34.57933952], [-58.36531975, -34.57962795], [-58.36529498, -34.57981122], [-58.36526544, -34.58002988], [-58.36524837, -34.5801562], [-58.36533403, -34.58017047], [-58.36948857, -34.58051311], [-58.36955643, -34.58051778], [-58.37063071, -34.58059164], [-58.37062357, -34.58082007], [-58.36903885, -34.58174092], [-58.36576947, -34.58148393], [-58.36232528, -34.5812103], [-58.36163634, -34.58115557], [-58.36157724, -34.58164171], [-58.36141505, -34.58297586], [-58.36243009, -34.58305309], [-58.36335563, -34.58312351], [-58.36601217, -34.58332564], [-58.36615494, -34.58333278], [-58.36616208, -34.58353265], [-58.36494459, -34.58450773], [-58.35990886, -34.584118], [-58.3596893, -34.58576465], [-58.35966615, -34.58593829], [-58.36328119, -34.58620108], [-58.3636922, -34.58623096], [-58.36355657, -34.58748018], [-58.35958763, -34.58717323], [-58.35947341, -34.58808694], [-58.35955907, -34.58809408], [-58.35957335, -34.58812977], [-58.35959025, -34.5881861], [-58.35961618, -34.58827254], [-58.3596376, -34.58837961], [-58.35977323, -34.5884153], [-58.3603443, -34.58854379], [-58.36394085, -34.58927607], [-58.36718431, -34.58989081], [-58.36789552, -34.59002561], [-58.36792407, -34.59013982], [-58.3678741, -34.59033969], [-58.36781699, -34.59042535], [-58.36767423, -34.59052529], [-58.36754574, -34.59060381], [-58.36748149, -34.59061809], [-58.36728161, -34.59062523], [-58.36711029, -34.59061809], [-58.36686759, -34.59068947], [-58.36672482, -34.59073944], [-58.36668199, -34.59079655], [-58.36663916, -34.5908251], [-58.3653257, -34.59271678], [-58.36436202, -34.59419442], [-58.36434774, -34.59425867], [-58.36435488, -34.59430863], [-58.36441199, -34.59440143], [-58.36459044, -34.59447282], [-58.36468324, -34.59448709], [-58.36474749, -34.59448709], [-58.36478318, -34.59446568], [-58.36487598, -34.59437288], [-58.36552557, -34.59335923], [-58.36591105, -34.59280244], [-58.3661252, -34.59287382], [-58.366218, -34.59273105], [-58.36621086, -34.59270964], [-58.36699608, -34.59152467], [-58.36726734, -34.59141759], [-58.36733158, -34.59141759], [-58.36733872, -34.59146042], [-58.3663679, -34.59301659], [-58.3669247, -34.59323074], [-58.36702463, -34.59307369], [-58.36699608, -34.59305228], [-58.36747435, -34.59224564], [-58.36763853, -34.59206004], [-58.3678741, -34.59205291], [-58.36790265, -34.59210287], [-58.36789552, -34.5921457], [-58.36730303, -34.59310225], [-58.36718882, -34.59328071], [-58.36718882, -34.59332354], [-58.36806684, -34.5936876], [-58.36913046, -34.59405165], [-58.36846659, -34.59577914], [-58.36795976, -34.5974638], [-58.36792407, -34.59753518], [-58.36396941, -34.59721396], [-58.36384805, -34.59717113], [-58.36440485, -34.59549361], [-58.3644786, -34.59531987], [-58.36415024, -34.59521993], [-58.36385042, -34.59526276], [-58.36380376, -34.59542967], [-58.36300809, -34.5952342], [-58.36030383, -34.59504214], [-58.36029011, -34.59504117], [-58.35929039, -34.59497016], [-58.35798267, -34.59487728], [-58.35665493, -34.59487728], [-58.35622364, -34.59498163], [-58.35576977, -34.59509144], [-58.35556276, -34.5951771], [-58.35524238, -34.59547554], [-58.35507866, -34.59562804], [-58.35504166, -34.59566251], [-58.35494306, -34.59574245], [-58.35490051, -34.59577695], [-58.35461792, -34.59600608], [-58.35455621, -34.59605612], [-58.35451342, -34.59609081], [-58.35446567, -34.59610527], [-58.3544654, -34.59610535], [-58.3540172, -34.59624104], [-58.35371155, -34.59646443], [-58.35352595, -34.5965715], [-58.35325469, -34.5967571], [-58.35310479, -34.59692842], [-58.35299057, -34.59702122], [-58.3529406, -34.59712116], [-58.35291741, -34.59716312], [-58.3527907, -34.59739242], [-58.35265507, -34.59761371], [-58.35250516, -34.59777789], [-58.3522339, -34.59799918], [-58.35209827, -34.59806342], [-58.35196978, -34.59813481], [-58.3518984, -34.59820619], [-58.35177705, -34.59834182], [-58.35161286, -34.59849887], [-58.35142727, -34.59864877], [-58.35132733, -34.59872016], [-58.35122739, -34.5987844], [-58.35114887, -34.59884865], [-58.35108462, -34.59892003], [-58.35100429, -34.5989602], [-58.35095613, -34.59898428], [-58.35079909, -34.59902711], [-58.35067774, -34.59910563], [-58.35060635, -34.59916987], [-58.35051355, -34.59923412], [-58.35044217, -34.59929836], [-58.35035651, -34.59940544], [-58.34924476, -34.6003408], [-58.34906993, -34.6004879], [-58.34878261, -34.60072962], [-58.34877957, -34.60073218], [-58.34798408, -34.60140146], [-58.34718859, -34.60207074], [-58.34710626, -34.60214001], [-58.34684679, -34.60235831], [-58.3466945, -34.60311455], [-58.34616554, -34.6057411], [-58.34601874, -34.60647002], [-58.34566307, -34.60687213], [-58.34558093, -34.60696499], [-58.34547386, -34.60700782], [-58.34533109, -34.6070792], [-58.34513121, -34.60720769], [-58.34490992, -34.60735046], [-58.34471719, -34.60751464], [-58.34461654, -34.60757564], [-58.34448162, -34.60765741], [-58.34431744, -34.60774307], [-58.34425319, -34.60777162], [-58.34413184, -34.60782159], [-58.34405332, -34.6078787], [-58.34392483, -34.60795722], [-58.34374637, -34.60807144], [-58.34368926, -34.60813568], [-58.34366071, -34.60817851], [-58.34358218, -34.60820707], [-58.34347511, -34.60827845], [-58.34335376, -34.60837125], [-58.3432324, -34.60844977], [-58.34313247, -34.60852829], [-58.34303253, -34.60859968], [-58.34296828, -34.60866392], [-58.34290404, -34.60875672], [-58.34283265, -34.60880669], [-58.34273985, -34.60887807], [-58.34261026, -34.60897697], [-58.3424686, -34.60908509], [-58.34241282, -34.60912585], [-58.342283, -34.60922072], [-58.34209026, -34.6093849], [-58.34189753, -34.60951339], [-58.34168337, -34.60965616], [-58.3414835, -34.60979179], [-58.34138356, -34.60988459], [-58.34127649, -34.61004163], [-58.34121224, -34.61014157], [-58.34116227, -34.61022009], [-58.34109089, -34.6103343], [-58.34099809, -34.61039141], [-58.34090529, -34.61047707], [-58.34084104, -34.61060556], [-58.34079108, -34.61069122], [-58.34074111, -34.61081971], [-58.34069114, -34.61102673], [-58.3405912, -34.61143361], [-58.34054123, -34.6116549], [-58.34047078, -34.61188829], [-58.34042702, -34.61203324], [-58.34035563, -34.61222598], [-58.34030567, -34.61235447], [-58.34026997, -34.61249723], [-58.34023428, -34.61261145], [-58.34021287, -34.61273994], [-58.3401629, -34.61288984], [-58.34012007, -34.61301834], [-58.34007724, -34.61314683], [-58.34005582, -34.61326818], [-58.34004868, -34.61337525], [-58.34002013, -34.61350375], [-58.33998444, -34.61365365], [-58.33995589, -34.61378928], [-58.33991878, -34.61396469], [-58.33987736, -34.61416048], [-58.33983453, -34.61433894], [-58.33982739, -34.6145174], [-58.33982026, -34.61466016], [-58.33979884, -34.6147601], [-58.33978834, -34.61482311], [-58.33978456, -34.61484576], [-58.33978528, -34.61485652], [-58.3397917, -34.61495284], [-58.33978456, -34.61508133], [-58.33977743, -34.61520982], [-58.33977029, -34.61540969], [-58.33977029, -34.61553819], [-58.33978456, -34.61557388], [-58.33977743, -34.61572378], [-58.33978456, -34.61585227], [-58.33978456, -34.6159879], [-58.33979884, -34.61610926], [-58.33979925, -34.61611068], [-58.33982739, -34.61620919], [-58.33988101, -34.61627353], [-58.34087911, -34.61696344], [-58.34127025, -34.6170252], [-58.34169288, -34.61709193], [-58.34247008, -34.61709193], [-58.34271258, -34.61709193], [-58.34277792, -34.61709193], [-58.34367735, -34.61722042], [-58.34428438, -34.61737927], [-58.34520497, -34.61762017], [-58.34520959, -34.61771146], [-58.34526207, -34.61874804], [-58.34460534, -34.61896219], [-58.34325089, -34.61864293], [-58.34271024, -34.61851549], [-58.3426066, -34.61849106], [-58.34135024, -34.61843395], [-58.34103274, -34.61845869], [-58.34025093, -34.61851961], [-58.33889464, -34.61851961], [-58.3383664, -34.61870521], [-58.33816526, -34.61891932], [-58.33800501, -34.61908991], [-58.33792382, -34.61917634], [-58.33765256, -34.61967603], [-58.33763116, -34.61978915], [-58.33755262, -34.62020427], [-58.33744124, -34.62054636], [-58.33735275, -34.62081817], [-58.33702438, -34.6212893], [-58.33686734, -34.62178899], [-58.33690236, -34.62199035], [-58.33695779, -34.62230908], [-58.33698155, -34.62244572], [-58.33715572, -34.62257239], [-58.33745268, -34.62278836], [-58.33808086, -34.62284547], [-58.33906859, -34.62271436], [-58.33969413, -34.62263132], [-58.34042225, -34.62277409], [-58.34033659, -34.62315956], [-58.33982858, -34.62344097], [-58.33969295, -34.62358374], [-58.33954305, -34.62371937], [-58.33940742, -34.62383358], [-58.33928607, -34.62393352], [-58.33913616, -34.62407629], [-58.33897912, -34.62420478], [-58.33885062, -34.62429758], [-58.33870072, -34.62445462], [-58.33856509, -34.62457597], [-58.33848657, -34.6246545], [-58.33839377, -34.62468305], [-58.33827242, -34.62472588], [-58.33820103, -34.62476871], [-58.33766565, -34.62488292], [-58.33749433, -34.62490434], [-58.33738726, -34.62493289], [-58.33721594, -34.62494717], [-58.33706603, -34.62496858], [-58.33695895, -34.62503997], [-58.33599527, -34.62574667], [-58.33584537, -34.62581805], [-58.33573115, -34.62592513], [-58.33572401, -34.62598937], [-58.33564549, -34.62608217], [-58.33552414, -34.62616069], [-58.33535985, -34.6262976], [-58.33535282, -34.62630346], [-58.33523147, -34.62641054], [-58.33518864, -34.62651761], [-58.33518864, -34.62663183], [-58.33519577, -34.62679601], [-58.33518864, -34.62690309], [-58.3351458, -34.62698875], [-58.3351458, -34.62706727], [-58.33519577, -34.62716007], [-58.33530999, -34.62726714], [-58.33595958, -34.62783108], [-58.33621258, -34.62802785], [-58.3361535, -34.62822781], [-58.33636623, -34.62827792], [-58.33696413, -34.62841876], [-58.33822286, -34.62871526], [-58.33859067, -34.6288019], [-58.3389398, -34.62888414], [-58.33936577, -34.62898448], [-58.33983561, -34.62788818], [-58.3398369, -34.62788517], [-58.33985399, -34.62788818], [-58.33992185, -34.62790016], [-58.34032231, -34.62797083], [-58.34246383, -34.62615768], [-58.34421987, -34.62634328], [-58.3442627, -34.62657171], [-58.34136285, -34.62895071], [-58.34132169, -34.62898448], [-58.34142429, -34.62900948], [-58.34238406, -34.62924338], [-58.34274722, -34.62933188], [-58.34289217, -34.6293672], [-58.34302062, -34.62939851], [-58.34326928, -34.62925161], [-58.34339877, -34.62914567], [-58.34452564, -34.62822369], [-58.34455922, -34.62822369], [-58.34473979, -34.62822369], [-58.34532514, -34.62866627], [-58.34310134, -34.63023847], [-58.3451534, -34.63226552], [-58.34532986, -34.63233982], [-58.3453452, -34.63234628], [-58.34741463, -34.63321762], [-58.34797289, -34.63345267], [-58.34967438, -34.63416909], [-58.35012205, -34.63441531], [-58.350227, -34.63447303], [-58.3503107, -34.63451907], [-58.35110273, -34.63495469], [-58.35205384, -34.6354778], [-58.35425532, -34.63718798], [-58.35587154, -34.63816039], [-58.35705071, -34.63940391], [-58.35711515, -34.63949413], [-58.35722817, -34.63965235], [-58.35764557, -34.64023672], [-58.35762452, -34.64051036], [-58.35761073, -34.64068961], [-58.3575266, -34.64178337], [-58.35710115, -34.64270518], [-58.35703527, -34.64284792], [-58.35689781, -34.64314573], [-58.35681276, -34.64333002], [-58.35662215, -34.64452316], [-58.35730698, -34.64525691], [-58.35740324, -34.64536005], [-58.35745496, -34.64541546], [-58.35750711, -34.64543953], [-58.35807784, -34.64570294], [-58.35900161, -34.6461293], [-58.35926441, -34.6463045], [-58.36042928, -34.64708108], [-58.36161901, -34.64821133], [-58.36279043, -34.6486018], [-58.36286823, -34.64862773], [-58.36314747, -34.64865566], [-58.36405796, -34.64874671], [-58.36439897, -34.64897619], [-58.36443152, -34.6489981], [-58.36500812, -34.64938613], [-58.36537882, -34.64963559], [-58.36668856, -34.65024008], [-58.36692547, -34.65034943], [-58.36782507, -34.65078688], [-58.3683575, -34.65104578], [-58.36840048, -34.65106668], [-58.36918596, -34.65189608], [-58.36918596, -34.65320478], [-58.36952678, -34.65380122], [-58.36964993, -34.65401673], [-58.36966185, -34.65403759], [-58.36986116, -34.65414832], [-58.37073261, -34.65463246], [-58.37102827, -34.65479469], [-58.37107813, -34.65482206], [-58.37214813, -34.6554092], [-58.37309991, -34.65642047], [-58.37358493, -34.65681454], [-58.3740517, -34.65719379], [-58.37571732, -34.65719379], [-58.37627723, -34.65724248], [-58.37650329, -34.65726214], [-58.37650637, -34.65726241], [-58.37708551, -34.65731277], [-58.37779504, -34.65746481], [-58.37875113, -34.65766968], [-58.38046469, -34.65782154], [-58.38072634, -34.65784473], [-58.38126769, -34.65784473], [-58.38126772, -34.65784473], [-58.38239197, -34.65784473], [-58.38381964, -34.65784473], [-58.38455473, -34.65798618], [-58.38524732, -34.65820165], [-58.38573688, -34.6585668], [-58.38618284, -34.65889942], [-58.38682457, -34.65966536], [-58.38723319, -34.66012878], [-58.38730344, -34.66020845], [-58.38743066, -34.66035273], [-58.3874692, -34.66037509], [-58.38746923, -34.66037511], [-58.3879892, -34.66067678], [-58.38842088, -34.66079399], [-58.38874487, -34.66088196], [-58.38874618, -34.66088227], [-58.38969093, -34.66110676], [-58.39010032, -34.66120404], [-58.39048484, -34.66129541], [-58.3908889, -34.6618453], [-58.39176831, -34.662405], [-58.39273047, -34.66266655], [-58.39297225, -34.66265251], [-58.39359262, -34.66261647], [-58.39375557, -34.66260701], [-58.39381338, -34.66260365], [-58.39553554, -34.66222826], [-58.39597861, -34.66225085], [-58.39646348, -34.66227558], [-58.39749639, -34.66218898], [-58.39762117, -34.6620601], [-58.39797175, -34.66169801], [-58.3988987, -34.66115794], [-58.39998843, -34.66104012], [-58.40017029, -34.66102046], [-58.40042965, -34.66085527], [-58.4004297, -34.66085523], [-58.40074072, -34.66065714], [-58.40196477, -34.65995995], [-58.40228503, -34.65991278], [-58.40235173, -34.65990295], [-58.40245733, -34.6598874], [-58.40337855, -34.65975171], [-58.4034652, -34.65976634], [-58.40374982, -34.65981438], [-58.4046711, -34.6599699], [-58.40547274, -34.66010522], [-58.40552174, -34.66011357], [-58.40552178, -34.66011358], [-58.406558, -34.66029018], [-58.40655804, -34.66029018], [-58.4066946, -34.66031346], [-58.40680232, -34.66030414], [-58.40680235, -34.66030414], [-58.40709625, -34.66027873], [-58.40837542, -34.66016812], [-58.40845086, -34.6601355], [-58.40861863, -34.66006295], [-58.40937566, -34.65973559], [-58.41057642, -34.65921633], [-58.41182848, -34.65886996], [-58.41321093, -34.65881881], [-58.41342093, -34.65881104], [-58.41415234, -34.65895781], [-58.41415239, -34.65895782], [-58.41508469, -34.65914491], [-58.41579376, -34.65934446], [-58.4157938, -34.65934447], [-58.41672468, -34.65960644], [-58.41891134, -34.66027418], [-58.42140297, -34.66106042], [-58.42156052, -34.66113856], [-58.42203709, -34.66137496], [-58.42314705, -34.66192553], [-58.42367247, -34.66218616], [-58.42372907, -34.66221423], [-58.42379459, -34.66224673], [-58.42383198, -34.66227723], [-58.423832, -34.66227725], [-58.4238586, -34.66229896], [-58.42564271, -34.66375447], [-58.42564274, -34.6637545], [-58.42564956, -34.66376006], [-58.42742027, -34.66550786], [-58.43794948, -34.67806538], [-58.4469239, -34.68876661], [-58.44692429, -34.68876706], [-58.45032558, -34.69282281], [-58.45754334, -34.701174], [-58.45754339, -34.70117405], [-58.45895842, -34.70281129], [-58.46120644, -34.70541232], [-58.46136734, -34.70529157], [-58.46161487, -34.70510582], [-58.46161677, -34.7051044], [-58.46172441, -34.70502362], [-58.47320301, -34.69640958], [-58.47368276, -34.69604956], [-58.50241923, -34.67448449], [-58.52888038, -34.65462691], [-58.53021333, -34.63481654], [-58.53135845, -34.61779768], [-58.53135847, -34.61779741], [-58.53135847, -34.61779738], [-58.53135847, -34.61779735], [-58.53151211, -34.61551403], [-58.52941596, -34.61101013], [-58.52941257, -34.61100285], [-58.52314397, -34.59753382], [-58.51558624, -34.5812949], [-58.51558529, -34.58129285], [-58.51248457, -34.57463049], [-58.51248455, -34.57463044], [-58.51248448, -34.57463028], [-58.50995964, -34.56920528], [-58.50995804, -34.56920186], [-58.50995803, -34.56920183], [-58.50077015, -34.54946028], [-58.49914739, -34.54876037], [-58.47586598, -34.53871886], [-58.46353159, -34.53339892], [-58.46348608, -34.53333328], [-58.46025088, -34.52866659], [-58.4595759, -34.52769294], [-58.45956783, -34.5277551], [-58.45956409, -34.5277839], [-58.45956357, -34.52778296], [-58.45947599, -34.52761576], [-58.45942055, -34.52750993], [-58.45934831, -34.52742324], [-58.45927744, -34.52733819], [-58.45918843, -34.52723139], [-58.45913316, -34.52716506], [-58.45906654, -34.52708511], [-58.45902907, -34.52704015], [-58.45892841, -34.52698524], [-58.45874691, -34.52689672], [-58.45849706, -34.52674681], [-58.45834716, -34.52666829], [-58.45811159, -34.52662546], [-58.45791885, -34.52656835], [-58.45774753, -34.5265398], [-58.45747627, -34.52652552], [-58.45734065, -34.52654694], [-58.45706939, -34.52661118], [-58.45679813, -34.52671826], [-58.4566625, -34.52678251], [-58.45645549, -34.52691813], [-58.45619137, -34.52707518], [-58.45618993, -34.52707608], [-58.45584872, -34.52728933], [-58.45568454, -34.52738927], [-58.45554891, -34.52748921], [-58.45546325, -34.52763197], [-58.45535089, -34.52776288]]]]}}